[
{"name":"Athens Kitchen & Bath","state":"OH","zip":"45701","rotationGroup":"A","id":"1012"},
{"name":"Atlantic Kitchen & Bath LLC","state":"NJ","zip":"7712","rotationGroup":"A","id":"1013"},
{"name":"Atlantic Kitchen & Bath, LLC - DE","state":"DE","zip":"19958","rotationGroup":"A","id":"1014"},
{"name":"Bailey Industries, Inc.","state":"FL","zip":"34748","rotationGroup":"B","id":"1186"},
{"name":"Bath, Kitchen and Tile Center","state":"DE","zip":"19808","rotationGroup":"A","id":"1192"},
{"name":"Cabinet Showplace","state":"VA","zip":"20132","rotationGroup":"A","id":"1024"},
{"name":"Cabinet-S-Top","state":"OH","zip":"44256-9623","rotationGroup":"A","id":"1023"},
{"name":"Cameron Kitchen & Bath Design","state":"LA","zip":"70125-1097","rotationGroup":"A","id":"1026"},
{"name":"Caruso Cabinets","state":"OH","zip":"44011","rotationGroup":"A","id":"1235"},
{"name":"Cavalier Kitchens & Baths, Inc.","state":"VA","zip":"22601","rotationGroup":"A","id":"1180"},
{"name":"Central Kitchen & Bath","state":"FL","zip":"32789-4721","rotationGroup":"A","id":"1031"},
{"name":"Christoff and Sons Floor Covering, Inc.","state":"MI","zip":"49201","rotationGroup":"A","id":"1233"},
{"name":"Classic Cabinetry","state":"TN","zip":"37408","rotationGroup":"A","id":"1246"},
{"name":"Classic Kitchens, Inc.","state":"VA","zip":"22801","rotationGroup":"A","id":"1033"},
{"name":"Coastal Creations Kitchen and Bath","state":"MA","zip":"2568","rotationGroup":"B","id":"1213"},
{"name":"Columbia Construction & Casework","state":"MO","zip":"63701","rotationGroup":"B","id":"1230"},
{"name":"Confluence Kitchen & Bath","state":"CO","zip":"80302","rotationGroup":"A","id":"1147"},
{"name":"Contractors Building Supply","state":"OH","zip":"45750","rotationGroup":"B","id":"1034"},
{"name":"Copper Leaf Design","state":"PA","zip":"15090","rotationGroup":"B","id":"1035"},
{"name":"Cornerstone Kitchen and Bath, LLC","state":"KY","zip":"40223","rotationGroup":"A","id":"1253"},
{"name":"Counter Culture","state":"MD","zip":"20895","rotationGroup":"B","id":"1225"},
{"name":"Country Cabinets, etc. LLC","state":"NH","zip":"3813","rotationGroup":"B","id":"1036"},
{"name":"CR Cabinetry, Inc.","state":"IL","zip":"60193","rotationGroup":"A","id":"1037"},
{"name":"Creative Kitchens","state":"WV","zip":"25727","rotationGroup":"A","id":"1039"},
{"name":"Custom Homes Building & Remodeling","state":"FL","zip":"33069","rotationGroup":"B","id":"1271"},
{"name":"Custom Kitchens","state":"VA","zip":"23226-2906","rotationGroup":"B","id":"1041"},
{"name":"CW Home NC, LLC","state":"NC","zip":"28607","rotationGroup":"B","id":"1237"},
{"name":"Dave Fox Design / Build Remodelers, Inc.","state":"OH","zip":"43235","rotationGroup":"B","id":"1044"},
{"name":"Davis Kitchen & Tile, LLC","state":"WV","zip":"26508","rotationGroup":"B","id":"1045"},
{"name":"DCI Home Resource","state":"NC","zip":"28203","rotationGroup":"A","id":"1179"},
{"name":"Dexter Builders dba Mill Creek Kitchen and Bath","state":"MI","zip":"48130","rotationGroup":"B","id":"1048"},
{"name":"Distinctive Remodeling, Inc.","state":"NC","zip":"27603","rotationGroup":"B","id":"1184"},
{"name":"Drury Design Kitchen & Bath Studio","state":"IL","zip":"60137-5104","rotationGroup":"B","id":"1055"},
{"name":"Elite Kitchens Et cetera LLC","state":"MA","zip":"1453","rotationGroup":"B","id":"1277"},
{"name":"Enchanted Kitchens","state":"CO","zip":"80110","rotationGroup":"A","id":"1206"},
{"name":"eTotalHome","state":"TX","zip":"77073","rotationGroup":"B","id":"1218"},
{"name":"FD Kitchen and Bath","state":"WV","zip":"26531","rotationGroup":"B","id":"1060"},
{"name":"Floor Covering Associates, Inc DBA FCA","state":"IL","zip":"60404","rotationGroup":"B","id":"1257"},
{"name":"Gotcha Covered","state":"NE","zip":"68526","rotationGroup":"B","id":"1065"},
{"name":"Granite State Cabinetry","state":"NH","zip":"3110","rotationGroup":"A","id":"1066"},
{"name":"Great Kitchens & Baths","state":"IN","zip":"47304","rotationGroup":"B","id":"1067"},
{"name":"Harth Builders","state":"PA","zip":"19477","rotationGroup":"B","id":"1228"},
{"name":"Heart of the Home Cabinetry & Design","state":"MD","zip":"21054","rotationGroup":"B","id":"1015"},
{"name":"Hickory Hill Kitchens & Bath Inc.","state":"PA","zip":"19512","rotationGroup":"A","id":"1261"},
{"name":"Hill's Showcase of Fine Plumbing","state":"FL","zip":"34102-6210","rotationGroup":"B","id":"1071"},
{"name":"Howard's Kitchen Studio","state":"OH","zip":"45227-0165","rotationGroup":"B","id":"1073"},
{"name":"ICC Floors Plus","state":"IN","zip":"46256","rotationGroup":"B","id":"1223"},
{"name":"Imperial Home Center","state":"OH","zip":"44107-5616","rotationGroup":"B","id":"1075"},
{"name":"Jacob Evans Kitchen & Bath","state":"PA","zip":"15220","rotationGroup":"A","id":"1077"},
{"name":"JEM Designs","state":"OH","zip":"45440","rotationGroup":"A","id":"1232"},
{"name":"KABCORP DBA Kitchen & Bath Galleries","state":"NC","zip":"27612","rotationGroup":"A","id":"1247"},
{"name":"Kabinet King","state":"NY","zip":"11427","rotationGroup":"A","id":"1270"},
{"name":"KBF by Audi Contractors","state":"VA","zip":"20147","rotationGroup":"A","id":"1211"},
{"name":"KBR Designs, Inc. dba Saltwater Kitchen and Bath Studio","state":"FL","zip":"32211-8735","rotationGroup":"A","id":"1088"},
{"name":"Kitchen & Bath Depot","state":"MD","zip":"20852","rotationGroup":"A","id":"1265"},
{"name":"Kitchen & Bath Design Center, Inc.","state":"CO","zip":"80524-7115","rotationGroup":"A","id":"1083"},
{"name":"Kitchen & Bath Design of Colorado, LLC","state":"CO","zip":"80222","rotationGroup":"A","id":"1241"},
{"name":"Kitchen & Bath Design Store","state":"IL","zip":"60175","rotationGroup":"A","id":"1085"},
{"name":"Kitchen & Bath World, Inc.","state":"NY","zip":"12205","rotationGroup":"A","id":"1086"},
{"name":"Kitchen & Bathroom Cabinets, LLC","state":"FL","zip":"34102","rotationGroup":"A","id":"1188"},
{"name":"Kitchen Design Group, LLC","state":"OH","zip":"44333-2185","rotationGroup":"A","id":"1092"},
{"name":"Kitchen Designs & More","state":"FL","zip":"33433-1928","rotationGroup":"A","id":"1259"},
{"name":"Kitchens & Baths by Kustom Kraft","state":"NJ","zip":"7432","rotationGroup":"A","id":"1095"},
{"name":"Kitchens by Woody's","state":"WV","zip":"25504","rotationGroup":"A","id":"1098"},
{"name":"Kitchens of Vermont","state":"VT","zip":"5255","rotationGroup":"A","id":"1280"},
{"name":"Leatherman Supply","state":"IN","zip":"46528","rotationGroup":"A","id":"1222"},
{"name":"Litt's Plumbing K & B Gallery","state":"OH","zip":"44130-3890","rotationGroup":"A","id":"1103"},
{"name":"Mark IV Kitchen & Bath Gallery","state":"PA","zip":"19001-1029","rotationGroup":"A","id":"1106"},
{"name":"Matteo Family Kitchens & Flooring","state":"NJ","zip":"8098","rotationGroup":"A","id":"1226"},
{"name":"Metropolitan Kitchen & Bath","state":"NC","zip":"28203","rotationGroup":"A","id":"1109"},
{"name":"Mid-West Paints & Home Center","state":"IL","zip":"62305","rotationGroup":"A","id":"1111"},
{"name":"Mike's Factory Direct","state":"CT","zip":"6880","rotationGroup":"A","id":"1112"},
{"name":"Modern Kitchen","state":"IN","zip":"46514","rotationGroup":"B","id":"1212"},
{"name":"Murphy Bros Building & Remodeling","state":"MN","zip":"55449","rotationGroup":"B","id":"1252"},
{"name":"Nebraska Furniture Mart","state":"NE","zip":"68114","rotationGroup":"A","id":"1266"},
{"name":"Noble Brothers Cabinets and Millwork","state":"NC","zip":"27932","rotationGroup":"B","id":"1234"},
{"name":"Northeast Design + Build","state":"RI","zip":"2919","rotationGroup":"B","id":"1210"},
{"name":"Oak Creek Plumbing","state":"WI","zip":"53154-4539","rotationGroup":"B","id":"1122"},
{"name":"Oakenshield Kitchens","state":"NY","zip":"12603","rotationGroup":"B","id":"1215"},
{"name":"Oen Kitchen & Bath","state":"OH","zip":"45895","rotationGroup":"B","id":"1163"},
{"name":"Olde World Cabinetry, Plumbing & Hardware","state":"FL","zip":"33781","rotationGroup":"B","id":"1177"},
{"name":"Pace Construction LLC","state":"DC","zip":"20002","rotationGroup":"A","id":"1269"},
{"name":"Penn Construction & Design, LLC","state":"PA","zip":"19083","rotationGroup":"B","id":"1248"},
{"name":"Plush Designs Kitchen and Bath","state":"CO","zip":"80903","rotationGroup":"B","id":"1126"},
{"name":"Prestige Kitchen & Bath","state":"MA","zip":"2494","rotationGroup":"B","id":"1178"},
{"name":"RA Cooks Renovations, LLC","state":"OH","zip":"45420","rotationGroup":"B","id":"1249"},
{"name":"Remodel Showroom","state":"NY","zip":"11968","rotationGroup":"B","id":"1209"},
{"name":"Remodeling Designs, Inc.","state":"OH","zip":"45342","rotationGroup":"B","id":"1131"},
{"name":"Rhinebeck Kitchen & Bath","state":"NY","zip":"12572","rotationGroup":"B","id":"1132"},
{"name":"RIKB Design Build","state":"RI","zip":"02888-3814","rotationGroup":"B","id":"1129"},
{"name":"Robertson Kitchens & Remodeling","state":"PA","zip":"16505-4349","rotationGroup":"B","id":"1134"},
{"name":"SD Kitchens","state":"MD","zip":"21208-3697","rotationGroup":"A","id":"1138"},
{"name":"Sea Pointe Construction","state":"CA","zip":"92618","rotationGroup":"A","id":"1139"},
{"name":"Signature Kitchen & Bath Design","state":"CA","zip":"95014","rotationGroup":"A","id":"1141"},
{"name":"Stange Plumbing & Design","state":"KS","zip":"67502","rotationGroup":"B","id":"1143"},
{"name":"Studio 38 Designs, Inc.","state":"CA","zip":"95037","rotationGroup":"A","id":"1275"},
{"name":"The Cabinet Market","state":"SC","zip":"29577","rotationGroup":"B","id":"1205"},
{"name":"The Cabinetry","state":"MA","zip":"2061","rotationGroup":"B","id":"1146"},
{"name":"The Kitchen Center of RI, Inc.","state":"RI","zip":"2904","rotationGroup":"A","id":"1174"},
{"name":"The Kitchen Master","state":"IL","zip":"60563-3939","rotationGroup":"B","id":"1150"},
{"name":"The Raby Companies, Inc.","state":"NM","zip":"87109","rotationGroup":"A","id":"1267"},
{"name":"Thomas Michael Design Studio","state":"MA","zip":"2538","rotationGroup":"A","id":"1204"},
{"name":"Thomson Remodeling Co., Inc.","state":"MD","zip":"21210","rotationGroup":"B","id":"1153"},
{"name":"TraVek, Inc.","state":"AZ","zip":"85260","rotationGroup":"B","id":"1244"},
{"name":"ValEquity Construction","state":"OH","zip":"43231-2804","rotationGroup":"B","id":"1101"},
{"name":"Weiler's Kitchen & Bath Design Center","state":"PA","zip":"19053","rotationGroup":"A","id":"1157"},
{"name":"West Georgia Design Build, Inc.","state":"GA","zip":"30563","rotationGroup":"B","id":"1158"},
{"name":"Westside Remodeling","state":"CA","zip":"91320","rotationGroup":"B","id":"1229"},
{"name":"Williams Kitchen & Bath (Williams Distributing)","state":"MI","zip":"49504","rotationGroup":"B","id":"1238"},
{"name":"Wish Kitchens and Baths","state":"MD","zip":"21740","rotationGroup":"A","id":"1176"},
{"name":"Wood + Water, LLC","state":"NC","zip":"27702","rotationGroup":"B","id":"1279"},
{"name":"Woodstock Kitchens & Baths","state":"VT","zip":"5452","rotationGroup":"B","id":"1207"},
{"name":"","state":"","zip":"","rotationGroup":"","id":""},
{"name":"110","state":"","zip":"","rotationGroup":"","id":""},
{"name":"","state":"","zip":"","rotationGroup":"","id":""},
{"name":"","state":"","zip":"","rotationGroup":"","id":""},
{"name":"","state":"","zip":"","rotationGroup":"","id":""},
{"name":"","state":"","zip":"","rotationGroup":"","id":""},
{"name":"","state":"","zip":"","rotationGroup":"","id":""},
{"name":"","state":"","zip":"","rotationGroup":"","id":""},
{"name":"","state":"","zip":"","rotationGroup":"","id":""},
{"name":"","state":"","zip":"","rotationGroup":"","id":""},
{"name":"","state":"","zip":"","rotationGroup":"","id":""},
{"name":"","state":"","zip":"","rotationGroup":"","id":""},
{"name":"","state":"","zip":"","rotationGroup":"","id":""},
{"name":"","state":"","zip":"","rotationGroup":"","id":""},
{"name":"","state":"","zip":"","rotationGroup":"","id":""},
{"name":"","state":"","zip":"","rotationGroup":"","id":""},
{"name":"","state":"","zip":"","rotationGroup":"","id":""},
{"name":"","state":"","zip":"","rotationGroup":"","id":""},
{"name":"","state":"","zip":"","rotationGroup":"","id":""},
{"name":"","state":"","zip":"","rotationGroup":"","id":""},
{"name":"","state":"","zip":"","rotationGroup":"","id":""},
{"name":"","state":"","zip":"","rotationGroup":"","id":""},
{"name":"","state":"","zip":"","rotationGroup":"","id":""},
{"name":"","state":"","zip":"","rotationGroup":"","id":""},
{"name":"","state":"","zip":"","rotationGroup":"","id":""},
{"name":"","state":"","zip":"","rotationGroup":"","id":""},
{"name":"","state":"","zip":"","rotationGroup":"","id":""},
{"name":"","state":"","zip":"","rotationGroup":"","id":""},
{"name":"","state":"","zip":"","rotationGroup":"","id":""},
{"name":"","state":"","zip":"","rotationGroup":"","id":""},
{"name":"","state":"","zip":"","rotationGroup":"","id":""},
{"name":"","state":"","zip":"","rotationGroup":"","id":""},
{"name":"","state":"","zip":"","rotationGroup":"","id":""},
{"name":"","state":"","zip":"","rotationGroup":"","id":""},
{"name":"","state":"","zip":"","rotationGroup":"","id":""},
{"name":"","state":"","zip":"","rotationGroup":"","id":""},
{"name":"","state":"","zip":"","rotationGroup":"","id":""},
{"name":"","state":"","zip":"","rotationGroup":"","id":""},
{"name":"","state":"","zip":"","rotationGroup":"","id":""},
{"name":"","state":"","zip":"","rotationGroup":"","id":""},
{"name":"","state":"","zip":"","rotationGroup":"","id":""},
{"name":"","state":"","zip":"","rotationGroup":"","id":""},
{"name":"","state":"","zip":"","rotationGroup":"","id":""},
{"name":"","state":"","zip":"","rotationGroup":"","id":""},
{"name":"","state":"","zip":"","rotationGroup":"","id":""},
{"name":"","state":"","zip":"","rotationGroup":"","id":""},
{"name":"","state":"","zip":"","rotationGroup":"","id":""},
{"name":"","state":"","zip":"","rotationGroup":"","id":""},
{"name":"","state":"","zip":"","rotationGroup":"","id":""},
{"name":"","state":"","zip":"","rotationGroup":"","id":""},
{"name":"","state":"","zip":"","rotationGroup":"","id":""},
{"name":"","state":"","zip":"","rotationGroup":"","id":""},
{"name":"","state":"","zip":"","rotationGroup":"","id":""},
{"name":"","state":"","zip":"","rotationGroup":"","id":""},
{"name":"","state":"","zip":"","rotationGroup":"","id":""},
{"name":"","state":"","zip":"","rotationGroup":"","id":""},
{"name":"","state":"","zip":"","rotationGroup":"","id":""}
]
